NORAD_CAT_ID,OBJECT_NAME,OBJECT_TYPE,EPOCH,MEAN_MOTION,ECCENTRICITY,INCLINATION,RA_OF_ASC_NODE,ARG_OF_PERICENTER,MEAN_ANOMALY,BSTAR,MEAN_MOTION_DOT,MEAN_MOTION_DDOT,TLE_LINE0,TLE_LINE1,TLE_LINE2,SEMIMAJOR_AXIS,PERIOD,APOGEE,PERIGEE,DECAYED
55757.0,STARLINK-5544,PAYLOAD,2023-09-14 10:26:20,14.98313997,0.0003044,70.002,11.9127,266.3161,93.765,-0.00023279,-2.868e-05,0.0,0 STARLINK-5544,1 55757U 23028S   23257.43496280 -.00002868  00000-0 -23279-3 0  9991,2 55757  70.0020  11.9127 0003044 266.3161  93.7650 14.98313997 30149,6950.242,96.108,574.223,569.992,0.0
55757.0,STARLINK-5544,PAYLOAD,2023-09-14 13:38:37,14.98312118,0.0002693,70.0025,11.5763,260.098,99.9875,-0.00023099,-2.847e-05,0.0,0 STARLINK-5544,1 55757U 23028S   23257.56848559 -.00002847  00000-0 -23099-3 0  9992,2 55757  70.0025  11.5763 0002693 260.0980  99.9875 14.98312118 30168,6950.248,96.108,573.985,570.241,0.0
55757.0,STARLINK-5544,PAYLOAD,2023-09-14 16:50:53,14.98316023,0.0002684,70.0018,11.2388,256.2971,103.7889,-0.00019553,-2.424e-05,0.0,0 STARLINK-5544,1 55757U 23028S   23257.70200283 -.00002424  00000-0 -19553-3 0  9995,2 55757  70.0018  11.2388 0002684 256.2971 103.7889 14.98316023 30187,6950.236,96.108,573.967,570.236,0.0
55757.0,STARLINK-5544,PAYLOAD,2023-09-15 00:51:33,14.98322893,0.0003021,70.0033,10.3953,274.6152,85.4662,-0.00014319,-1.801e-05,0.0,0 STARLINK-5544,1 55757U 23028S   23258.03579926 -.00001801  00000-0 -14319-3 0  9998,2 55757  70.0033  10.3953 0003021 274.6152  85.4662 14.98322893 30236,6950.215,96.107,574.18,569.98,0.0
55757.0,STARLINK-5544,PAYLOAD,2023-09-15 10:28:20,14.98328104,0.000309,70.0011,9.3859,267.3996,92.681,5.4977e-06,-2.7e-07,0.0,0 STARLINK-5544,1 55757U 23028S   23258.43635214 -.00000027  00000-0  54977-5 0  9999,2 55757  70.0011   9.3859 0003090 267.3996  92.6810 14.98328104 30298,6950.199,96.107,574.211,569.916,0.0
55757.0,STARLINK-5544,PAYLOAD,2023-09-15 13:40:37,14.98320642,0.0002697,70.0025,9.0504,272.4971,87.588,-0.00010611,-1.358e-05,0.0,0 STARLINK-5544,1 55757U 23028S   23258.56988155 -.00001358  00000-0 -10611-3 0  9992,2 55757  70.0025   9.0504 0002697 272.4971  87.5880 14.98320642 30311,6950.222,96.108,573.961,570.212,0.0
55757.0,STARLINK-5544,PAYLOAD,2023-09-16 10:30:21,14.98321308,0.0003073,70.0016,6.8624,271.1586,88.9221,0.00019239,2.203e-05,0.0,0 STARLINK-5544,1 55757U 23028S   23259.43775336  .00002203  00000-0  19239-3 0  9997,2 55757  70.0016   6.8624 0003073 271.1586  88.9221 14.98321308 30444,6950.22,96.108,574.221,569.949,0.0
55757.0,STARLINK-5544,PAYLOAD,2023-09-16 13:42:38,14.98322084,0.0002759,70.0019,6.5264,262.2931,97.7915,0.00019719,2.26e-05,0.0,0 STARLINK-5544,1 55757U 23028S   23259.57127342  .00002260  00000-0  19719-3 0  9996,2 55757  70.0019   6.5264 0002759 262.2931  97.7915 14.98322084 30461,6950.217,96.108,574.0,570.165,0.0
55757.0,STARLINK-5544,PAYLOAD,2023-09-17 12:08:30,14.98331688,0.0003009,70.0017,4.1704,268.3511,91.7303,3.7445e-05,3.54e-06,0.0,0 STARLINK-5544,1 55757U 23028S   23260.50591150  .00000354  00000-0  37445-4 0  9992,2 55757  70.0017   4.1704 0003009 268.3511  91.7303 14.98331688 30603,6950.188,96.107,574.144,569.961,0.0
55757.0,STARLINK-5544,PAYLOAD,2023-09-18 10:34:24,14.98279974,0.0003211,70.0018,1.8144,261.4695,98.61,0.00086382,0.00010216,0.0,0 STARLINK-5544,1 55757U 23028S   23261.44056167  .00010216  00000-0  86382-3 0  9991,2 55757  70.0018   1.8144 0003211 261.4695  98.6100 14.98279974 30743,6950.348,96.11,574.444,569.981,0.0
55757.0,STARLINK-5544,PAYLOAD,2023-09-18 13:46:39,14.98351752,0.0002313,70.0018,1.4775,257.0965,102.9935,-0.00033072,-4.039e-05,0.0,0 STARLINK-5544,1 55757U 23028S   23261.57406594 -.00004039  00000-0 -33072-3 0  9994,2 55757  70.0018   1.4775 0002313 257.0965 102.9935 14.98351752 30764,6950.126,96.106,573.598,570.383,0.0
55757.0,STARLINK-5544,PAYLOAD,2023-09-18 16:58:55,14.98349547,0.0002318,70.0019,1.141,259.0509,101.039,-0.00027793,-3.409e-05,0.0,0 STARLINK-5544,1 55757U 23028S   23261.70758457 -.00003409  00000-0 -27793-3 0  9990,2 55757  70.0019   1.1410 0002318 259.0509 101.0390 14.98349547 30785,6950.132,96.106,573.608,570.386,0.0
55757.0,STARLINK-5544,PAYLOAD,2023-09-19 17:00:55,14.98363721,0.0002553,70.002,358.6167,255.8007,104.2869,-0.0004765,-5.779e-05,0.0,0 STARLINK-5544,1 55757U 23028S   23262.70897683 -.00005779  00000-0 -47650-3 0  9992,2 55757  70.0020 358.6167 0002553 255.8007 104.2869 14.98363721 30937,6950.089,96.105,573.728,570.179,0.0
55757.0,STARLINK-5544,PAYLOAD,2023-09-20 09:02:17,14.98322792,0.0002746,70.0032,356.9362,233.2524,126.8383,-5.7678e-05,-7.81e-06,0.0,0 STARLINK-5544,1 55757U 23028S   23263.37659360 -.00000781  00000-0 -57678-4 0  9994,2 55757  70.0032 356.9362 0002746 233.2524 126.8383 14.98322792 31032,6950.215,96.107,573.989,570.172,0.0
55757.0,STARLINK-5544,PAYLOAD,2023-09-20 13:50:42,14.9832154,0.0002967,70.0015,356.4289,248.811,111.2732,-0.00010255,-1.316e-05,0.0,0 STARLINK-5544,1 55757U 23028S   23263.57687619 -.00001316  00000-0 -10255-3 0  9998,2 55757  70.0015 356.4289 0002967 248.8110 111.2732 14.98321540 31063,6950.219,96.108,574.146,570.022,0.0
55757.0,STARLINK-5544,PAYLOAD,2023-09-20 15:26:50,14.98321425,0.0002947,70.0015,356.26,251.0284,109.0556,-9.9539e-05,-1.28e-05,0.0,0 STARLINK-5544,1 55757U 23028S   23263.64363671 -.00001280  00000-0 -99539-4 0  9998,2 55757  70.0015 356.2600 0002947 251.0284 109.0556 14.98321425 31076,6950.219,96.108,574.133,570.036,0.0
55757.0,STARLINK-5544,PAYLOAD,2023-09-21 10:40:26,14.98332998,0.0003294,70.0001,354.2378,265.049,95.0293,6.0623e-06,-2.1e-07,0.0,0 STARLINK-5544,1 55757U 23028S   23264.44474799 -.00000021  00000-0  60623-5 0  9995,2 55757  70.0001 354.2378 0003294 265.0490  95.0293 14.98332998 31193,6950.184,96.107,574.338,569.759,0.0
55757.0,STARLINK-5544,PAYLOAD,2023-09-21 12:16:34,14.98332554,0.0003156,70.0004,354.0701,259.0397,101.0407,1.9413e-05,1.39e-06,0.0,0 STARLINK-5544,1 55757U 23028S   23264.51150761  .00000139  00000-0  19413-4 0  9992,2 55757  70.0004 354.0701 0003156 259.0397 101.0407 14.98332554 31205,6950.185,96.107,574.243,569.857,0.0
55757.0,STARLINK-5544,PAYLOAD,2023-09-21 15:28:49,14.98338973,0.000321,70.0003,353.7335,263.718,96.3613,5.7774e-05,5.97e-06,0.0,0 STARLINK-5544,1 55757U 23028S   23264.64502206  .00000597  00000-0  57774-4 0  9991,2 55757  70.0003 353.7335 0003210 263.7180  96.3613 14.98338973 31224,6950.165,96.106,574.261,569.799,0.0
55757.0,STARLINK-5544,PAYLOAD,2023-09-22 10:42:27,14.98323858,0.0003084,70.0004,351.7115,265.5569,94.5238,0.00015489,1.755e-05,0.0,0 STARLINK-5544,1 55757U 23028S   23265.44614815  .00001755  00000-0  15489-3 0  9993,2 55757  70.0004 351.7115 0003084 265.5569  94.5238 14.98323858 31341,6950.212,96.107,574.22,569.933,0.0
55757.0,STARLINK-5544,PAYLOAD,2023-09-22 12:18:35,14.9832613,0.0003088,70.0006,351.5444,266.8869,93.1937,0.00012043,1.344e-05,0.0,0 STARLINK-5544,1 55757U 23028S   23265.51290803  .00001344  00000-0  12043-3 0  9995,2 55757  70.0006 351.5444 0003088 266.8869  93.1937 14.98326130 31355,6950.205,96.107,574.216,569.924,0.0
55757.0,STARLINK-5544,PAYLOAD,2023-09-22 15:30:51,14.98328286,0.0002984,70.0005,351.2069,263.553,96.5289,0.00019719,2.261e-05,0.0,0 STARLINK-5544,1 55757U 23028S   23265.64642449  .00002261  00000-0  19719-3 0  9992,2 55757  70.0005 351.2069 0002984 263.5530  96.5289 14.98328286 31370,6950.198,96.107,574.137,569.989,0.0
55757.0,STARLINK-5544,PAYLOAD,2023-09-23 12:20:36,14.98332339,0.000306,70.0005,349.0191,265.4036,94.6774,-1.5772e-05,-2.81e-06,0.0,0 STARLINK-5544,1 55757U 23028S   23266.51430573 -.00000281  00000-0 -15772-4 0  9990,2 55757  70.0005 349.0191 0003060 265.4036  94.6774 14.98332339 31506,6950.186,96.107,574.177,569.924,0.0
55757.0,STARLINK-5544,PAYLOAD,2023-09-24 13:58:44,14.98337701,0.0002991,70.0006,346.3265,266.5424,93.5393,3.1918e-05,2.88e-06,0.0,0 STARLINK-5544,1 55757U 23028S   23267.58245718  .00000288  00000-0  31918-4 0  9998,2 55757  70.0006 346.3265 0002991 266.5424  93.5393 14.98337701 31664,6950.169,96.107,574.113,569.955,0.0
55757.0,STARLINK-5544,PAYLOAD,2023-09-24 15:34:52,14.98338194,0.0003014,70.0009,346.1581,268.6073,91.4741,4.6681e-05,4.64e-06,0.0,0 STARLINK-5544,1 55757U 23028S   23267.64921633  .00000464  00000-0  46681-4 0  9991,2 55757  70.0009 346.1581 0003014 268.6073  91.4741 14.98338194 31678,6950.168,96.106,574.127,569.938,0.0
55757.0,STARLINK-5544,PAYLOAD,2023-09-25 09:12:21,14.98330916,0.00029,70.0009,344.3069,270.794,89.2887,-3.4473e-05,-5.04e-06,0.0,0 STARLINK-5544,1 55757U 23028S   23268.38358171 -.00000504  00000-0 -34473-4 0  9997,2 55757  70.0009 344.3069 0002900 270.7940  89.2887 14.98330916 31781,6950.19,96.107,574.071,570.04,0.0
55757.0,STARLINK-5544,PAYLOAD,2023-09-25 12:24:37,14.98332872,0.0002666,70.0014,343.9719,254.6894,105.397,2.5709e-05,2.14e-06,0.0,0 STARLINK-5544,1 55757U 23028S   23268.51709787  .00000214  00000-0  25709-4 0  9993,2 55757  70.0014 343.9719 0002666 254.6894 105.3970 14.98332872 31801,6950.184,96.107,573.902,570.196,0.0
55757.0,STARLINK-5544,PAYLOAD,2023-09-25 15:36:53,14.98335225,0.0002657,70.0015,343.6356,254.6469,105.4396,4.8469e-05,4.85e-06,0.0,0 STARLINK-5544,1 55757U 23028S   23268.65061534  .00000485  00000-0  48469-4 0  9997,2 55757  70.0015 343.6356 0002657 254.6469 105.4396 14.98335225 31824,6950.177,96.107,573.888,570.195,0.0
55757.0,STARLINK-5544,PAYLOAD,2023-09-26 10:50:31,14.98320544,0.0002743,70.0014,341.6159,251.4654,108.6207,-0.00012537,-1.588e-05,0.0,0 STARLINK-5544,1 55757U 23028S   23269.45175083 -.00001588  00000-0 -12537-3 0  9994,2 55757  70.0014 341.6159 0002743 251.4654 108.6207 14.98320544 31946,6950.222,96.108,573.994,570.181,0.0
55757.0,STARLINK-5544,PAYLOAD,2023-09-26 14:02:47,14.98317661,0.0002766,70.0015,341.2796,245.264,114.8232,-0.0001497,-1.878e-05,0.0,0 STARLINK-5544,1 55757U 23028S   23269.58527387 -.00001878  00000-0 -14970-3 0  9991,2 55757  70.0015 341.2796 0002766 245.2640 114.8232 14.98317661 31966,6950.231,96.108,574.018,570.174,0.0
